[
  {
    "OBJECT_NAME": "STARLINK-31186",
    "OBJECT_ID": "24038H",
    "EPOCH": "2025-11-11T01:34:40.998720",
    "MEAN_MOTION": 15.27569954,
    "ECCENTRICITY": 9.92e-05,
    "INCLINATION": 43.0013,
    "RA_OF_ASC_NODE": 337.1609,
    "ARG_OF_PERICENTER": 214.6507,
    "MEAN_ANOMALY": 145.4281,
    "EPHEMERIS_TYPE": 0,
    "CLASSIFICATION_TYPE": "U",
    "NORAD_CAT_ID": 59030,
    "ELEMENT_SET_NO": 999,
    "REV_AT_EPOCH": 9661,
    "BSTAR": 0.00011071,
    "MEAN_MOTION_DOT": 2.785e-05,
    "MEAN_MOTION_DDOT": 0.0,
    "TLE_LINE1": "1 59030U 24038H   25315.06575230  .00002785  00000+0  11071-3 0  9992",
    "TLE_LINE2": "2 59030  43.0013 337.1609 0000992 214.6507 145.4281 15.27569954 96614",
    "COMMENT": "Grouped by shell and plane from TLE"
  },
  {
    "OBJECT_NAME": "STARLINK-31211",
    "OBJECT_ID": "24038J",
    "EPOCH": "2025-11-11T02:15:09.967104",
    "MEAN_MOTION": 15.27601995,
    "ECCENTRICITY": 0.0001474,
    "INCLINATION": 43.0016,
    "RA_OF_ASC_NODE": 336.5119,
    "ARG_OF_PERICENTER": 251.1504,
    "MEAN_ANOMALY": 108.9188,
    "EPHEMERIS_TYPE": 0,
    "CLASSIFICATION_TYPE": "U",
    "NORAD_CAT_ID": 59031,
    "ELEMENT_SET_NO": 999,
    "REV_AT_EPOCH": 9651,
    "BSTAR": 0.0,
    "MEAN_MOTION_DOT": -0.00011238,
    "MEAN_MOTION_DDOT": 0.0,
    "TLE_LINE1": "1 59031U 24038J   25315.09386536 -.00011238  00000+0 -39919-3 0  9991",
    "TLE_LINE2": "2 59031  43.0016 336.5119 0001474 251.1504 108.9188 15.27601995 96517",
    "COMMENT": "Grouped by shell and plane from TLE"
  },
  {
    "OBJECT_NAME": "STARLINK-31210",
    "OBJECT_ID": "24038L",
    "EPOCH": "2025-11-11T07:35:21.146208",
    "MEAN_MOTION": 15.27599617,
    "ECCENTRICITY": 0.0001467,
    "INCLINATION": 42.9995,
    "RA_OF_ASC_NODE": 332.1525,
    "ARG_OF_PERICENTER": 211.5431,
    "MEAN_ANOMALY": 148.5332,
    "EPHEMERIS_TYPE": 0,
    "CLASSIFICATION_TYPE": "U",
    "NORAD_CAT_ID": 59033,
    "ELEMENT_SET_NO": 999,
    "REV_AT_EPOCH": 9675,
    "BSTAR": 0.00050054,
    "MEAN_MOTION_DOT": 0.00013545,
    "MEAN_MOTION_DDOT": 0.0,
    "TLE_LINE1": "1 59033U 24038L   25315.31621697  .00013545  00000+0  50054-3 0  9992",
    "TLE_LINE2": "2 59033  42.9995 332.1525 0001467 211.5431 148.5332 15.27599617 96751",
    "COMMENT": "Grouped by shell and plane from TLE"
  },
  {
    "OBJECT_NAME": "STARLINK-31231",
    "OBJECT_ID": "24038M",
    "EPOCH": "2025-11-11T02:47:20.677920",
    "MEAN_MOTION": 15.27578318,
    "ECCENTRICITY": 0.0001336,
    "INCLINATION": 43.0062,
    "RA_OF_ASC_NODE": 333.2395,
    "ARG_OF_PERICENTER": 295.943,
    "MEAN_ANOMALY": 64.1284,
    "EPHEMERIS_TYPE": 0,
    "CLASSIFICATION_TYPE": "U",
    "NORAD_CAT_ID": 59034,
    "ELEMENT_SET_NO": 999,
    "REV_AT_EPOCH": 9655,
    "BSTAR": 5.4296e-05,
    "MEAN_MOTION_DOT": 1.232e-05,
    "MEAN_MOTION_DDOT": 0.0,
    "TLE_LINE1": "1 59034U 24038M   25315.11621155  .00001232  00000+0  54296-4 0  9993",
    "TLE_LINE2": "2 59034  43.0062 333.2395 0001336 295.9430  64.1284 15.27578318 96558",
    "COMMENT": "Grouped by shell and plane from TLE"
  },
  {
    "OBJECT_NAME": "STARLINK-31207",
    "OBJECT_ID": "24038N",
    "EPOCH": "2025-11-11T01:07:39.246528",
    "MEAN_MOTION": 15.27566067,
    "ECCENTRICITY": 0.0001124,
    "INCLINATION": 43.003,
    "RA_OF_ASC_NODE": 333.5789,
    "ARG_OF_PERICENTER": 282.1528,
    "MEAN_ANOMALY": 77.9198,
    "EPHEMERIS_TYPE": 0,
    "CLASSIFICATION_TYPE": "U",
    "NORAD_CAT_ID": 59035,
    "ELEMENT_SET_NO": 999,
    "REV_AT_EPOCH": 9671,
    "BSTAR": 0.0,
    "MEAN_MOTION_DOT": -1.236e-05,
    "MEAN_MOTION_DDOT": 0.0,
    "TLE_LINE1": "1 59035U 24038N   25315.04698202 -.00001236  00000+0 -35409-4 0  9994",
    "TLE_LINE2": "2 59035  43.0030 333.5789 0001124 282.1528  77.9198 15.27566067 96717",
    "COMMENT": "Grouped by shell and plane from TLE"
  },
  {
    "OBJECT_NAME": "STARLINK-31208",
    "OBJECT_ID": "24038Q",
    "EPOCH": "2025-11-11T02:56:53.936736",
    "MEAN_MOTION": 15.25922516,
    "ECCENTRICITY": 0.0001644,
    "INCLINATION": 43.0039,
    "RA_OF_ASC_NODE": 336.7043,
    "ARG_OF_PERICENTER": 274.441,
    "MEAN_ANOMALY": 85.6253,
    "EPHEMERIS_TYPE": 0,
    "CLASSIFICATION_TYPE": "U",
    "NORAD_CAT_ID": 59037,
    "ELEMENT_SET_NO": 999,
    "REV_AT_EPOCH": 9668,
    "BSTAR": 0.0,
    "MEAN_MOTION_DOT": -1.532e-05,
    "MEAN_MOTION_DDOT": 0.0,
    "TLE_LINE1": "1 59037U 24038Q   25315.12284649 -.00001532  00000+0 -48718-4 0  9997",
    "TLE_LINE2": "2 59037  43.0039 336.7043 0001644 274.4410  85.6253 15.25922516 96684",
    "COMMENT": "Grouped by shell and plane from TLE"
  },
  {
    "OBJECT_NAME": "STARLINK-31235",
    "OBJECT_ID": "24038R",
    "EPOCH": "2025-11-11T05:46:23.800800",
    "MEAN_MOTION": 15.27608214,
    "ECCENTRICITY": 0.0001318,
    "INCLINATION": 43.0035,
    "RA_OF_ASC_NODE": 332.4453,
    "ARG_OF_PERICENTER": 255.1424,
    "MEAN_ANOMALY": 104.9282,
    "EPHEMERIS_TYPE": 0,
    "CLASSIFICATION_TYPE": "U",
    "NORAD_CAT_ID": 59038,
    "ELEMENT_SET_NO": 999,
    "REV_AT_EPOCH": 9668,
    "BSTAR": 0.00087874,
    "MEAN_MOTION_DOT": 0.00024018,
    "MEAN_MOTION_DDOT": 0.0,
    "TLE_LINE1": "1 59038U 24038R   25315.24055325  .00024018  00000+0  87874-3 0  9995",
    "TLE_LINE2": "2 59038  43.0035 332.4453 0001318 255.1424 104.9282 15.27608214 96683",
    "COMMENT": "Grouped by shell and plane from TLE"
  },
  {
    "OBJECT_NAME": "STARLINK-31220",
    "OBJECT_ID": "24038S",
    "EPOCH": "2025-11-11T02:41:04.514784",
    "MEAN_MOTION": 15.27579071,
    "ECCENTRICITY": 6.89e-05,
    "INCLINATION": 43.0046,
    "RA_OF_ASC_NODE": 336.6427,
    "ARG_OF_PERICENTER": 283.9727,
    "MEAN_ANOMALY": 76.1048,
    "EPHEMERIS_TYPE": 0,
    "CLASSIFICATION_TYPE": "U",
    "NORAD_CAT_ID": 59039,
    "ELEMENT_SET_NO": 999,
    "REV_AT_EPOCH": 9662,
    "BSTAR": 1.0256e-05,
    "MEAN_MOTION_DOT": 2e-07,
    "MEAN_MOTION_DDOT": 0.0,
    "TLE_LINE1": "1 59039U 24038S   25315.11185781  .00000020  00000+0  10256-4 0  9990",
    "TLE_LINE2": "2 59039  43.0046 336.6427 0000689 283.9727  76.1048 15.27579071 96620",
    "COMMENT": "Grouped by shell and plane from TLE"
  },
  {
    "OBJECT_NAME": "STARLINK-31225",
    "OBJECT_ID": "24038T",
    "EPOCH": "2025-11-11T02:17:43.168992",
    "MEAN_MOTION": 15.2756775,
    "ECCENTRICITY": 0.0001076,
    "INCLINATION": 43.0024,
    "RA_OF_ASC_NODE": 333.0371,
    "ARG_OF_PERICENTER": 265.6662,
    "MEAN_ANOMALY": 94.4067,
    "EPHEMERIS_TYPE": 0,
    "CLASSIFICATION_TYPE": "U",
    "NORAD_CAT_ID": 59040,
    "ELEMENT_SET_NO": 999,
    "REV_AT_EPOCH": 9655,
    "BSTAR": 0.0,
    "MEAN_MOTION_DOT": -1.32e-05,
    "MEAN_MOTION_DDOT": 0.0,
    "TLE_LINE1": "1 59040U 24038T   25315.09563853 -.00001320  00000+0 -38483-4 0  9997",
    "TLE_LINE2": "2 59040  43.0024 333.0371 0001076 265.6662  94.4067 15.27567750 96550",
    "COMMENT": "Grouped by shell and plane from TLE"
  },
  {
    "OBJECT_NAME": "STARLINK-31240",
    "OBJECT_ID": "24038U",
    "EPOCH": "2025-11-11T03:13:14.905920",
    "MEAN_MOTION": 15.27588744,
    "ECCENTRICITY": 2.67e-05,
    "INCLINATION": 42.9978,
    "RA_OF_ASC_NODE": 333.3669,
    "ARG_OF_PERICENTER": 213.6333,
    "MEAN_ANOMALY": 146.4502,
    "EPHEMERIS_TYPE": 0,
    "CLASSIFICATION_TYPE": "U",
    "NORAD_CAT_ID": 59041,
    "ELEMENT_SET_NO": 999,
    "REV_AT_EPOCH": 9666,
    "BSTAR": 4.18e-05,
    "MEAN_MOTION_DOT": 8.89e-06,
    "MEAN_MOTION_DDOT": 0.0,
    "TLE_LINE1": "1 59041U 24038U   25315.13420030  .00000889  00000+0  41800-4 0  9996",
    "TLE_LINE2": "2 59041  42.9978 333.3669 0000267 213.6333 146.4502 15.27588744 96669",
    "COMMENT": "Grouped by shell and plane from TLE"
  },
  {
    "OBJECT_NAME": "STARLINK-31202",
    "OBJECT_ID": "24038V",
    "EPOCH": "2025-11-11T01:44:25.905984",
    "MEAN_MOTION": 15.2757547,
    "ECCENTRICITY": 0.0002078,
    "INCLINATION": 43.0031,
    "RA_OF_ASC_NODE": 332.9125,
    "ARG_OF_PERICENTER": 269.7954,
    "MEAN_ANOMALY": 90.2659,
    "EPHEMERIS_TYPE": 0,
    "CLASSIFICATION_TYPE": "U",
    "NORAD_CAT_ID": 59042,
    "ELEMENT_SET_NO": 999,
    "REV_AT_EPOCH": 9672,
    "BSTAR": 1.159e-05,
    "MEAN_MOTION_DOT": 5.6e-07,
    "MEAN_MOTION_DDOT": 0.0,
    "TLE_LINE1": "1 59042U 24038V   25315.07252206  .00000056  00000+0  11590-4 0  9997",
    "TLE_LINE2": "2 59042  43.0031 332.9125 0002078 269.7954  90.2659 15.27575470 96725",
    "COMMENT": "Grouped by shell and plane from TLE"
  },
  {
    "OBJECT_NAME": "STARLINK-31234",
    "OBJECT_ID": "24038W",
    "EPOCH": "2025-11-11T01:29:50.243712",
    "MEAN_MOTION": 15.27580079,
    "ECCENTRICITY": 5.62e-05,
    "INCLINATION": 43.0001,
    "RA_OF_ASC_NODE": 333.6906,
    "ARG_OF_PERICENTER": 242.77,
    "MEAN_ANOMALY": 117.3095,
    "EPHEMERIS_TYPE": 0,
    "CLASSIFICATION_TYPE": "U",
    "NORAD_CAT_ID": 59043,
    "ELEMENT_SET_NO": 999,
    "REV_AT_EPOCH": 9654,
    "BSTAR": 0.00014535,
    "MEAN_MOTION_DOT": 3.74e-05,
    "MEAN_MOTION_DDOT": 0.0,
    "TLE_LINE1": "1 59043U 24038W   25315.06238708  .00003740  00000+0  14535-3 0  9992",
    "TLE_LINE2": "2 59043  43.0001 333.6906 0000562 242.7700 117.3095 15.27580079 96540",
    "COMMENT": "Grouped by shell and plane from TLE"
  },
  {
    "OBJECT_NAME": "STARLINK-31153",
    "OBJECT_ID": "24038X",
    "EPOCH": "2025-11-11T02:32:32.126496",
    "MEAN_MOTION": 15.27577256,
    "ECCENTRICITY": 0.0001426,
    "INCLINATION": 43.0065,
    "RA_OF_ASC_NODE": 333.1549,
    "ARG_OF_PERICENTER": 273.685,
    "MEAN_ANOMALY": 86.3839,
    "EPHEMERIS_TYPE": 0,
    "CLASSIFICATION_TYPE": "U",
    "NORAD_CAT_ID": 59044,
    "ELEMENT_SET_NO": 999,
    "REV_AT_EPOCH": 9655,
    "BSTAR": 6.6804e-05,
    "MEAN_MOTION_DOT": 1.576e-05,
    "MEAN_MOTION_DDOT": 0.0,
    "TLE_LINE1": "1 59044U 24038X   25315.10592739  .00001576  00000+0  66804-4 0  9997",
    "TLE_LINE2": "2 59044  43.0065 333.1549 0001426 273.6850  86.3839 15.27577256 96553",
    "COMMENT": "Grouped by shell and plane from TLE"
  }
]